ONEWEB-0452             
1 51644C 22012Y   23020.91437914  .00002471  00000-0  63726-2 0   207
2 51644  87.9089 252.8671 0002080  98.9244 333.7349 13.17634147    10
ONEWEB-0456             
1 51646C 22012AA  23020.79668240 -.00002097  00000-0 -60139-2 0   204
2 51646  87.8807 283.3709 0001559  64.3582 353.1208 13.10381904    15
ONEWEB-0457             
1 51647C 22012AB  23021.17030507  .00001551  00000-0  44489-2 0   210
2 51647  87.8822 283.2651 0001716 100.4586  21.5622 13.10372021    15
ONEWEB-0458             
1 51648C 22012AC  23020.88560600 -.00002681  00000-0 -76902-2 0   201
2 51648  87.8826 283.3301 0002015  68.6659  55.4634 13.10381161    16
ONEWEB-0461             
1 51649C 22012AD  23020.69807129 -.00002895  00000-0 -74660-2 0   207
2 51649  87.9144 252.7924 0001687  93.4742 327.7058 13.17658523    16
ONEWEB-0463             
1 51650C 22012AE  23021.15049026 -.00000612  00000-0 -15792-2 0   212
2 51650  87.9077 252.8440 0001785 103.2366 354.1187 13.17650256    10
ONEWEB-0464             
1 51651C 22012AF  23020.94286294 -.00001351  00000-0 -38736-2 0   202
2 51651  87.8800 283.3106 0001980  59.3147 349.4960 13.10380265    16
ONEWEB-0468             
1 51652C 22012AG  23021.11824488  .00003947  00000-0  11320-1 0   217
2 51652  87.8801 283.2959 0001774  74.3265  51.8664 13.10372320    10
ONEWEB-0473             
1 51653C 22012AH  23020.78593007 -.00002637  00000-0 -75623-2 0   203
2 51653  87.8828 283.3375 0002007  67.3240 358.2875 13.10381450    10
ONEWEB-0474             
1 51654C 22012AJ  23020.94354581 -.00002594  00000-0 -74403-2 0   201
2 51654  87.8791 283.3053 0001924  59.8932  65.6295 13.10380354    11
ONEWEB-0475             
1 51655C 22012AK  23020.92375416 -.00000218  00000-0 -56330-3 0   201
2 51655  87.9080 252.8656 0002187  79.1353 354.0065 13.17652795    16
ONEWEB-0490             
1 54113C 22138A   23021.11994627 -.00002189  00000-0 -44812-2 0   216
2 54113  87.9396 192.0991 0001659  79.9363 347.2998 13.33087674    12
ONEWEB-0492             
1 54114C 22138B   23021.10157823 -.00487685  00000-0 -11065+1 0   215
2 54114  87.9581 192.0999 0001538  70.9561  36.6656 13.26762728    16
ONEWEB-0495             
1 54115C 22138C   23021.14045553 -.00002728  00000-0 -56007-2 0   214
2 54115  87.9779 192.0717 0001628  79.7603 341.1598 13.32908940    12
ONEWEB-0497             
1 54116C 22138D   23021.09910137 -.01374479  00000-0 -28749+1 0   214
2 54116  87.9779 192.1165 0002349  91.9713 327.6121 13.33054708    16
ONEWEB-0499             
1 54117C 22138E   23021.16646248 -.00073390  00000-0 -14972-0 0   212
2 54117  87.9616 192.0585 0001515  81.3703 338.6279 13.33387591    13
ONEWEB-0500             
1 54118C 22138F   23021.21437914 -.01353256  00000-0 -29425+1 0   219
2 54118  87.9706 192.0976 0001952  93.5628 251.1426 13.30464977    18
ONEWEB-0501             
1 54119C 22138G   23021.02863840 -.00047473  00000-0 -10738-0 0   217
2 54119  87.9617 192.1287 0001766  81.1783   7.9073 13.26522708    11
ONEWEB-0502             
1 54120C 22138H   23021.16612683 -.01385580  00000-0 -29392+1 0   212
2 54120  87.9749 192.0849 0001416  72.3628 308.9359 13.32134517    19
ONEWEB-0503             
1 54121C 22138J   23021.03729581 -.00000977  00000-0 -19966-2 0   216
2 54121  87.9776 192.1284 0001577  88.1798 341.1483 13.33169906    13
ONEWEB-0504             
1 54122C 22138K   23021.05991155 -.00002615  00000-0 -59473-2 0   215
2 54122  87.9552 192.1040 0001898  65.3961 354.4098 13.26113482    10
ONEWEB-0505             
1 54123C 22138L   23021.04462220 -.00001764  00000-0 -36134-2 0   214
2 54123  87.9751 192.1184 0001940  84.2156 335.5105 13.33035517    14
ONEWEB-0506             
1 54124C 22138M   23021.05399720 -.00677316  00000-0 -13937+1 0   216
2 54124  87.9795 192.1231 0002273  76.3873 343.8073 13.33429135    13
ONEWEB-0507             
1 54125C 22138N   23021.03976109 -.00001237  00000-0 -25362-2 0   217
2 54125  87.9795 192.1102 0001699  63.4046   3.9195 13.33012062    17
ONEWEB-0508             
1 54126C 22138P   23021.09495785 -.00001133  00000-0 -23247-2 0   215
2 54126  87.9806 192.1220 0001872  72.5343 347.2287 13.32953889    12
ONEWEB-0509             
1 54127C 22138Q   23021.06057127 -.00002684  00000-0 -54957-2 0   211
2 54127  87.9786 192.1242 0001645  86.6457 333.2707 13.33086738    17
ONEWEB-0510             
1 54128C 22138R   23021.15849951  .00000913  00000-0  15624-3 0   216
2 54128  86.9016 184.0106 0010422 359.0448 102.7739 14.68940743    10
ONEWEB-0511             
1 54129C 22138S   23020.99216850 -.00001094  00000-0 -22394-2 0   207
2 54129  87.9770 192.1349 0003586  34.7466  51.3757 13.33068227    16
ONEWEB-0512             
1 54130C 22138T   23021.15642776 -.01386144  00000-0 -28985+1 0   212
2 54130  87.9779 192.0994 0003069  91.7329 211.9824 13.33082552    15
ONEWEB-0513             
1 54131C 22138U   23021.20188657 -.00000533  00000-0 -95467-3 0   218
2 54131  87.6969 192.9761 0001826  96.9205 324.2872 13.41769232    11
ONEWEB-0514             
1 54132C 22138V   23021.10535138 -.00060097  00000-0 -13671-0 0   213
2 54132  87.9529 192.1129 0001948  87.7041 341.1395 13.26153045    18
ONEWEB-0515             
1 54133C 22138W   23021.09116155 -.00000377  00000-0 -64557-4 0   214
2 54133  86.9041 184.0099 0010480 350.7373  75.7777 14.68891917    13
ONEWEB-0516             
1 54134C 22138X   23021.10500414 -.00569181  00000-0 -11674+1 0   213
2 54134  87.9784 192.1121 0001800  73.4304 353.8951 13.33535979    12
ONEWEB-0517             
1 54135C 22138Y   23021.05294396 -.00002409  00000-0 -49378-2 0   216
2 54135  87.9718 192.1124 0001874  70.3934 350.0508 13.32996988    16
ONEWEB-0518             
1 54136C 22138Z   23021.05812914 -.00002630  00000-0 -54046-2 0   213
2 54136  87.9818 192.0931 0001605  72.6092 345.1493 13.32839493    10
ONEWEB-0519             
1 54137C 22138AA  23020.92723794 -.00479001  00000-0 -10839+1 0   205
2 54137  87.9559 192.1502 0002374  89.2000 207.4330 13.26929316    12
ONEWEB-0520             
1 54138C 22138AB  23021.16231896 -.01356468  00000-0 -28323+1 0   210
2 54138  87.9812 192.1083 0002908  60.3285  24.3736 13.33150554    11
ONEWEB-0521             
1 54139C 22138AC  23021.15433285 -.01372168  00000-0 -33238+1 0   212
2 54139  87.9377 192.0983 0002860  94.8976 295.8314 13.23263619    15
ONEWEB-0522             
1 54140C 22138AD  23021.09947174 -.00261552  00000-0 -53715-0 0   219
2 54140  87.9787 192.1164 0000928  73.0548 347.0796 13.33139137    13
ONEWEB-0523             
1 54141C 22138AE  23021.15852266  .00000918  00000-0  15722-3 0   218
2 54141  86.9021 183.9761 0010129 358.9186 101.9962 14.68933109    14
ONEWEB-0524             
1 54142C 22138AF  23021.22066387 -.00033139  00000-0 -56801-2 0   213
2 54142  86.9040 183.9601 0009497   1.9284  63.5298 14.68920672    15
ONEWEB-0525             
1 54143C 22138AG  23021.04807127 -.00002059  00000-0 -42145-2 0   212
2 54143  87.9792 192.1269 0001686  85.7546 334.4919 13.33107669    10
ONEWEB-0526             
1 54144C 22138AH  23021.04739998 -.00165720  00000-0 -37586-0 0   219
2 54144  87.9538 192.1260 0002215  77.9884 341.8750 13.26459531    12
ONEWEB-0529             
1 54145C 22138AJ  23021.02518933 -.00000310  00000-0 -63604-3 0   218
2 54145  87.9796 192.1325 0002023  64.3988  24.3336 13.33005163    12
ONEWEB-0531             
1 54146C 22138AK  23021.15956433  .00001024  00000-0  17527-3 0   218
2 54146  86.9028 183.9827 0010269 358.0316  85.3718 14.68933286    10
ONEWEB-0535             
1 54147C 22138AL  23021.16021248 -.01370034  00000-0 -30307+1 0   218
2 54147  87.9644 192.1060 0001697  94.2070 289.3358 13.29338411    19
ONEWEB-0536             
1 54148C 22138AM  23021.02514303  .00000229  00000-0  39235-4 0   219
2 54148  86.9001 184.0572 0009709 354.4992  72.1904 14.68852427    17
ONEWEB-0527             
1 54642C 22166A   23021.08349951  .00003802  00000-0  69988-3 0   217
2 54642  86.6612 139.8472 0010697  93.6575 331.5948 14.65695518    18
ONEWEB-0528             
1 54643C 22166B   23021.15743470  .00006481  00000-0  11924-2 0   212
2 54643  86.6627 139.8277 0010931  94.3209 352.0891 14.65717755    14
ONEWEB-0539             
1 54644C 22166C   23021.07030507  .00004060  00000-0  74002-3 0   212
2 54644  86.6598 139.8302 0011579  93.4390 331.3607 14.66132312    17
ONEWEB-0540             
1 54645C 22166D   23021.08972637  .00003922  00000-0  72231-3 0   211
2 54645  86.6588 139.8426 0010235  96.5517 327.9742 14.65686278    12
ONEWEB-0542             
1 54646C 22166E   23021.09634674  .00004137  00000-0  76104-3 0   211
2 54646  86.6687 139.7679 0015507  95.8302 330.1816 14.65693336    14
ONEWEB-0545             
1 54647C 22166F   23021.15259674  .00006468  00000-0  11834-2 0   219
2 54647  86.6576 139.8059 0010809  95.5342 338.0713 14.65971143    14
ONEWEB-0580             
1 54648C 22166G   23021.11303655 -.00036318  00000-0 -66810-2 0   218
2 54648  86.6655 139.7779 0015486  95.9373 336.6001 14.65729945    10
ONEWEB-0582             
1 54649C 22166H   23021.13208748  .00006670  00000-0  12263-2 0   217
2 54649  86.6628 139.7953 0012345  90.9446 335.0913 14.65743396    13
ONEWEB-0583             
1 54650C 22166J   23021.05643933  .00003210  00000-0  58972-3 0   214
2 54650  86.6638 139.8201 0013089  93.2129 333.2472 14.65776268    17
ONEWEB-0584             
1 54651C 22166K   23021.05604581  .00003162  00000-0  57453-3 0   210
2 54651  86.6604 139.8140 0013052  92.2823 333.2461 14.66267313    18
ONEWEB-0585             
1 54652C 22166L   23021.07690229  .00003978  00000-0  73195-3 0   213
2 54652  86.6630 139.8427 0011918  92.3509 340.8907 14.65715373    19
ONEWEB-0586             
1 54653C 22166M   23021.02692544  .00001607  00000-0  29554-3 0   218
2 54653  86.6616 139.8961 0010223 101.6981 324.0315 14.65744742    12
